{
  "type": "FeatureCollection",
  "features": [
    {
      "type": "Feature",
      "properties": {
        "norad_id": 66828,
        "name": "STARLINK-35982",
        "group": "last-30-days",
        "lat": 50.72757696224004,
        "lon": -39.33845459210431,
        "alt_km": 405.87008474089635,
        "timestamp": "2025-12-24T03:53:28.362287+00:00",
        "meta_object_name": "STARLINK-35982",
        "meta_object_id": "2025-280H",
        "meta_epoch": "2025-12-23T19:37:31.833984",
        "meta_mean_motion": 15.52552418,
        "meta_eccentricity": 0.0003453,
        "meta_inclination": 70.0002,
        "meta_ra_of_asc_node": 168.0558,
        "meta_arg_of_pericenter": 274.1107,
        "meta_mean_anomaly": 85.9685,
        "meta_ephemeris_type": 0,
        "meta_classification_type": "U",
        "meta_norad_cat_id": 66828,
        "meta_element_set_no": 999,
        "meta_rev_at_epoch": 465,
        "meta_bstar": 0.0014135,
        "meta_mean_motion_dot": 0.00087865,
        "meta_mean_motion_ddot": 0,
        "tle_line1": "1 66828U 25280H   25357.81772956  .00087865  00000+0  14135-2 0  9993",
        "tle_line2": "2 66828  70.0002 168.0558 0003453 274.1107  85.9685 15.52552418  4655"
      },
      "geometry": {
        "type": "Point",
        "coordinates": [
          -39.33845459210431,
          50.72757696224004
        ]
      }
    },
    {
      "type": "Feature",
      "properties": {
        "norad_id": 66829,
        "name": "STARLINK-36084",
        "group": "last-30-days",
        "lat": 52.36403161055181,
        "lon": -41.07144127630224,
        "alt_km": 405.7447888000779,
        "timestamp": "2025-12-24T03:53:28.362298+00:00",
        "meta_object_name": "STARLINK-36084",
        "meta_object_id": "2025-280J",
        "meta_epoch": "2025-12-23T18:05:14.674848",
        "meta_mean_motion": 15.52530105,
        "meta_eccentricity": 0.0003373,
        "meta_inclination": 70.0005,
        "meta_ra_of_asc_node": 168.2331,
        "meta_arg_of_pericenter": 272.0159,
        "meta_mean_anomaly": 88.0642,
        "meta_ephemeris_type": 0,
        "meta_classification_type": "U",
        "meta_norad_cat_id": 66829,
        "meta_element_set_no": 999,
        "meta_rev_at_epoch": 464,
        "meta_bstar": 0.00058939,
        "meta_mean_motion_dot": 0.00036273,
        "meta_mean_motion_ddot": 0,
        "tle_line1": "1 66829U 25280J   25357.75364207  .00036273  00000+0  58939-3 0  9991",
        "tle_line2": "2 66829  70.0005 168.2331 0003373 272.0159  88.0642 15.52530105  4640"
      },
      "geometry": {
        "type": "Point",
        "coordinates": [
          -41.07144127630224,
          52.36403161055181
        ]
      }
    },
    {
      "type": "Feature",
      "properties": {
        "norad_id": 66830,
        "name": "STARLINK-35881",
        "group": "last-30-days",
        "lat": 49.115417946013466,
        "lon": -37.76899897723613,
        "alt_km": 406.09927175180655,
        "timestamp": "2025-12-24T03:53:28.362310+00:00",
        "meta_object_name": "STARLINK-35881",
        "meta_object_id": "2025-280K",
        "meta_epoch": "2025-12-23T19:37:02.303328",
        "meta_mean_motion": 15.52547816,
        "meta_eccentricity": 0.000353,
        "meta_inclination": 70.0004,
        "meta_ra_of_asc_node": 168.0537,
        "meta_arg_of_pericenter": 273.4463,
        "meta_mean_anomaly": 86.632,
        "meta_ephemeris_type": 0,
        "meta_classification_type": "U",
        "meta_norad_cat_id": 66830,
        "meta_element_set_no": 999,
        "meta_rev_at_epoch": 465,
        "meta_bstar": 0.0013867,
        "meta_mean_motion_dot": 0.00086167,
        "meta_mean_motion_ddot": 0,
        "tle_line1": "1 66830U 25280K   25357.81738777  .00086167  00000+0  13867-2 0  9994",
        "tle_line2": "2 66830  70.0004 168.0537 0003530 273.4463  86.6320 15.52547816  4650"
      },
      "geometry": {
        "type": "Point",
        "coordinates": [
          -37.76899897723613,
          49.115417946013466
        ]
      }
    },
    {
      "type": "Feature",
      "properties": {
        "norad_id": 66831,
        "name": "STARLINK-35788",
        "group": "last-30-days",
        "lat": 47.442103691839414,
        "lon": -36.26179639937053,
        "alt_km": 406.1980861630818,
        "timestamp": "2025-12-24T03:53:28.362320+00:00",
        "meta_object_name": "STARLINK-35788",
        "meta_object_id": "2025-280L",
        "meta_epoch": "2025-12-23T18:03:45.882432",
        "meta_mean_motion": 15.52550294,
        "meta_eccentricity": 0.0003384,
        "meta_inclination": 70.0003,
        "meta_ra_of_asc_node": 168.2301,
        "meta_arg_of_pericenter": 275.5248,
        "meta_mean_anomaly": 84.5553,
        "meta_ephemeris_type": 0,
        "meta_classification_type": "U",
        "meta_norad_cat_id": 66831,
        "meta_element_set_no": 999,
        "meta_rev_at_epoch": 464,
        "meta_bstar": 0.0015231,
        "meta_mean_motion_dot": 0.0009477,
        "meta_mean_motion_ddot": 0,
        "tle_line1": "1 66831U 25280L   25357.75261438  .00094770  00000+0  15231-2 0  9999",
        "tle_line2": "2 66831  70.0003 168.2301 0003384 275.5248  84.5553 15.52550294  4640"
      },
      "geometry": {
        "type": "Point",
        "coordinates": [
          -36.26179639937053,
          47.442103691839414
        ]
      }
    },
    {
      "type": "Feature",
      "properties": {
        "norad_id": 66832,
        "name": "STARLINK-35768",
        "group": "last-30-days",
        "lat": 45.776638665538265,
        "lon": -34.87149718011781,
        "alt_km": 406.3669559228929,
        "timestamp": "2025-12-24T03:53:28.362344+00:00",
        "meta_object_name": "STARLINK-35768",
        "meta_object_id": "2025-280M",
        "meta_epoch": "2025-12-23T19:36:02.803968",
        "meta_mean_motion": 15.52561656,
        "meta_eccentricity": 0.0003466,
        "meta_inclination": 70.0004,
        "meta_ra_of_asc_node": 168.0513,
        "meta_arg_of_pericenter": 272.1089,
        "meta_mean_anomaly": 87.9701,
        "meta_ephemeris_type": 0,
        "meta_classification_type": "U",
        "meta_norad_cat_id": 66832,
        "meta_element_set_no": 999,
        "meta_rev_at_epoch": 465,
        "meta_bstar": 0.0014863,
        "meta_mean_motion_dot": 0.00092483,
        "meta_mean_motion_ddot": 0,
        "tle_line1": "1 66832U 25280M   25357.81669912  .00092483  00000+0  14863-2 0  9995",
        "tle_line2": "2 66832  70.0004 168.0513 0003466 272.1089  87.9701 15.52561656  4659"
      },
      "geometry": {
        "type": "Point",
        "coordinates": [
          -34.87149718011781,
          45.776638665538265
        ]
      }
    },
    {
      "type": "Feature",
      "properties": {
        "norad_id": 66833,
        "name": "STARLINK-35858",
        "group": "last-30-days",
        "lat": 44.11663656412423,
        "lon": -33.57712341832071,
        "alt_km": 406.6599000163178,
        "timestamp": "2025-12-24T03:53:28.362357+00:00",
        "meta_object_name": "STARLINK-35858",
        "meta_object_id": "2025-280N",
        "meta_epoch": "2025-12-23T18:02:46.512672",
        "meta_mean_motion": 15.52546108,
        "meta_eccentricity": 0.0003388,
        "meta_inclination": 70.0003,
        "meta_ra_of_asc_node": 168.227,
        "meta_arg_of_pericenter": 274.4423,
        "meta_mean_anomaly": 85.6377,
        "meta_ephemeris_type": 0,
        "meta_classification_type": "U",
        "meta_norad_cat_id": 66833,
        "meta_element_set_no": 999,
        "meta_rev_at_epoch": 464,
        "meta_bstar": 0.0010106,
        "meta_mean_motion_dot": 0.00062555,
        "meta_mean_motion_ddot": 0,
        "tle_line1": "1 66833U 25280N   25357.75192723  .00062555  00000+0  10106-2 0  9993",
        "tle_line2": "2 66833  70.0003 168.2270 0003388 274.4423  85.6377 15.52546108  4649"
      },
      "geometry": {
        "type": "Point",
        "coordinates": [
          -33.57712341832071,
          44.11663656412423
        ]
      }
    },
    {
      "type": "Feature",
      "properties": {
        "norad_id": 66834,
        "name": "STARLINK-35840",
        "group": "last-30-days",
        "lat": 42.43809554668451,
        "lon": -32.35128911724005,
        "alt_km": 406.8136529632384,
        "timestamp": "2025-12-24T03:53:28.362367+00:00",
        "meta_object_name": "STARLINK-35840",
        "meta_object_id": "2025-280P",
        "meta_epoch": "2025-12-23T18:02:16.918080",
        "meta_mean_motion": 15.52539044,
        "meta_eccentricity": 0.0003347,
        "meta_inclination": 70.0006,
        "meta_ra_of_asc_node": 168.2251,
        "meta_arg_of_pericenter": 272.0662,
        "meta_mean_anomaly": 88.0142,
        "meta_ephemeris_type": 0,
        "meta_classification_type": "U",
        "meta_norad_cat_id": 66834,
        "meta_element_set_no": 999,
        "meta_rev_at_epoch": 464,
        "meta_bstar": 0.00093309,
        "meta_mean_motion_dot": 0.00057697,
        "meta_mean_motion_ddot": 0,
        "tle_line1": "1 66834U 25280P   25357.75158470  .00057697  00000+0  93309-3 0  9993",
        "tle_line2": "2 66834  70.0006 168.2251 0003347 272.0662  88.0142 15.52539044  4644"
      },
      "geometry": {
        "type": "Point",
        "coordinates": [
          -32.35128911724005,
          42.43809554668451
        ]
      }
    }
  ]
}